[{"OBJECT_NAME":"HBTSS-SV1","OBJECT_ID":"2024-028F","EPOCH":"2026-03-09T23:05:25.846944","MEAN_MOTION":14.81553365,"ECCENTRICITY":0.00119303,"INCLINATION":39.9894,"RA_OF_ASC_NODE":316.1636,"ARG_OF_PERICENTER":238.589,"MEAN_ANOMALY":121.3729,"EPHEMERIS_TYPE":0,"CLASSIFICATION_TYPE":"U","NORAD_CAT_ID":58960,"ELEMENT_SET_NO":999,"REV_AT_EPOCH":9236,"BSTAR":0.00047571396,"MEAN_MOTION_DOT":3.673e-5,"MEAN_MOTION_DDOT":0},{"OBJECT_NAME":"FENGYUN 1C DEB","OBJECT_ID":"1999-025ACB","EPOCH":"2026-03-07T16:41:05.627328","MEAN_MOTION":14.18493236,"ECCENTRICITY":0.03279537,"INCLINATION":98.1368,"RA_OF_ASC_NODE":341.1407,"ARG_OF_PERICENTER":71.5764,"MEAN_ANOMALY":312.8923,"EPHEMERIS_TYPE":0,"CLASSIFICATION_TYPE":"U","NORAD_CAT_ID":30364,"ELEMENT_SET_NO":999,"REV_AT_EPOCH":96845,"BSTAR":0.0030018736,"MEAN_MOTION_DOT":0.00010576,"MEAN_MOTION_DDOT":0}]
